STARLINK-35842          
1 67087U 25298N   26007.85449457  .00051835  00000+0  11781-2 0  9996
2 67087  70.0003 177.1234 0003993 271.5803  88.4921 15.42734534  3873
STARLINK-35882          
1 67088U 25298P   26007.84845372  .00059740  00000+0  96556-3 0  9999
2 67088  70.0003 176.6891 0003681 273.1978  86.8788 15.52544469  3883
STARLINK-35763          
1 67089U 25298Q   26007.91668981  .00072772  00000+0  16509-2 0  9996
2 67089  70.0002 176.5860 0003324 275.3336  31.0624 15.42687972  5186
STARLINK-36060          
1 67090U 25298R   26007.91668981 -.02059879  00000+0 -42467-1 0  9996
2 67090  70.0003 176.5024 0003749 269.9436 110.4873 15.49073762  5127
STARLINK-36097          
1 67091U 25298S   26007.91668981 -.01922923  00000+0 -43866-1 0  9999
2 67091  69.9993 176.5101 0003526 271.7283  98.4397 15.45948643  5180
STARLINK-35792          
1 67092U 25298T   26007.91668981  .00089658  00000+0  20334-2 0  9992
2 67092  70.0002 176.5340 0003855 280.2265  72.2266 15.42617698  5129
STARLINK-35784          
1 67093U 25298U   26007.91668981  .00073842  00000+0  16752-2 0  9990
2 67093  70.0003 176.6372 0003382 282.7205 338.6847 15.42681339  5186
STARLINK-36202          
1 67094U 25298V   26007.91668981  .00065520  00000+0  14890-2 0  9996
2 67094  70.0004 176.6114 0003498 277.1317   7.2974 15.42669357  5188
STARLINK-36227          
1 67095U 25298W   26007.84625163 -.00359769  00000+0 -63540-2 0  9993
2 67095  70.0004 176.6792 0003215 286.3310  73.7523 15.51444286  3888
STARLINK-36228          
1 67096U 25298X   26007.91668981 -.00026733  00000+0 -43300-3 0  9992
2 67096  70.0003 176.4832 0003373 276.0652 120.6138 15.52535593  5127
STARLINK-36222          
1 67097U 25298Y   26007.71650662  .00053434  00000+0  86430-3 0  9995
2 67097  70.0004 177.0289 0002875 280.3230  79.7633 15.52557160  3865
STARLINK-36205          
1 67098U 25298Z   26007.91668981  .00071132  00000+0  16144-2 0  9990
2 67098  70.0005 176.6625 0003529 275.6700 323.7452 15.42681223  5187
