CCSDS_OMM_VERS = 2.0
CREATION_DATE  = 
ORIGINATOR     = 

OBJECT_NAME    = STARLINK-35842
OBJECT_ID      = 2025-298N
CENTER_NAME    = EARTH
REF_FRAME      = TEME
TIME_SYSTEM    = UTC
MEAN_ELEMENT_THEORY = SGP/SGP4

EPOCH          = 2026-01-07T20:30:28.330848
MEAN_MOTION    = 15.42734534
ECCENTRICITY   = .00039933
INCLINATION    = 70.0003
RA_OF_ASC_NODE = 177.1234
ARG_OF_PERICENTER = 271.5803
MEAN_ANOMALY   = 88.4921

EPHEMERIS_TYPE = 0
CLASSIFICATION_TYPE = U
NORAD_CAT_ID   = 67087
ELEMENT_SET_NO = 999
REV_AT_EPOCH   = 387
BSTAR          = .11781229E-2
MEAN_MOTION_DOT = .51835E-3
MEAN_MOTION_DDOT = 0

CCSDS_OMM_VERS = 2.0
CREATION_DATE  = 
ORIGINATOR     = 

OBJECT_NAME    = STARLINK-35882
OBJECT_ID      = 2025-298P
CENTER_NAME    = EARTH
REF_FRAME      = TEME
TIME_SYSTEM    = UTC
MEAN_ELEMENT_THEORY = SGP/SGP4

EPOCH          = 2026-01-07T20:21:46.401408
MEAN_MOTION    = 15.52544469
ECCENTRICITY   = .00036811
INCLINATION    = 70.0003
RA_OF_ASC_NODE = 176.6891
ARG_OF_PERICENTER = 273.1978
MEAN_ANOMALY   = 86.8788

EPHEMERIS_TYPE = 0
CLASSIFICATION_TYPE = U
NORAD_CAT_ID   = 67088
ELEMENT_SET_NO = 999
REV_AT_EPOCH   = 388
BSTAR          = .96555588E-3
MEAN_MOTION_DOT = .5974E-3
MEAN_MOTION_DDOT = 0

CCSDS_OMM_VERS = 2.0
CREATION_DATE  = 
ORIGINATOR     = 

OBJECT_NAME    = STARLINK-35763
OBJECT_ID      = 2025-298Q
CENTER_NAME    = EARTH
REF_FRAME      = TEME
TIME_SYSTEM    = UTC
MEAN_ELEMENT_THEORY = SGP/SGP4

EPOCH          = 2026-01-07T22:00:01.999584
MEAN_MOTION    = 15.42687972
ECCENTRICITY   = .00033244
INCLINATION    = 70.0002
RA_OF_ASC_NODE = 176.5860
ARG_OF_PERICENTER = 275.3336
MEAN_ANOMALY   = 31.0624

EPHEMERIS_TYPE = 0
CLASSIFICATION_TYPE = U
NORAD_CAT_ID   = 67089
ELEMENT_SET_NO = 999
REV_AT_EPOCH   = 518
BSTAR          = .16508503E-2
MEAN_MOTION_DOT = .72772E-3
MEAN_MOTION_DDOT = 0

CCSDS_OMM_VERS = 2.0
CREATION_DATE  = 
ORIGINATOR     = 

OBJECT_NAME    = STARLINK-36060
OBJECT_ID      = 2025-298R
CENTER_NAME    = EARTH
REF_FRAME      = TEME
TIME_SYSTEM    = UTC
MEAN_ELEMENT_THEORY = SGP/SGP4

EPOCH          = 2026-01-07T22:00:01.999584
MEAN_MOTION    = 15.49073762
ECCENTRICITY   = .00037492
INCLINATION    = 70.0003
RA_OF_ASC_NODE = 176.5024
ARG_OF_PERICENTER = 269.9436
MEAN_ANOMALY   = 110.4873

EPHEMERIS_TYPE = 0
CLASSIFICATION_TYPE = U
NORAD_CAT_ID   = 67090
ELEMENT_SET_NO = 999
REV_AT_EPOCH   = 512
BSTAR          = -.42466976E-1
MEAN_MOTION_DOT = -.2059879E-1
MEAN_MOTION_DDOT = 0

CCSDS_OMM_VERS = 2.0
CREATION_DATE  = 
ORIGINATOR     = 

OBJECT_NAME    = STARLINK-36097
OBJECT_ID      = 2025-298S
CENTER_NAME    = EARTH
REF_FRAME      = TEME
TIME_SYSTEM    = UTC
MEAN_ELEMENT_THEORY = SGP/SGP4

EPOCH          = 2026-01-07T22:00:01.999584
MEAN_MOTION    = 15.45948643
ECCENTRICITY   = .00035269
INCLINATION    = 69.9993
RA_OF_ASC_NODE = 176.5101
ARG_OF_PERICENTER = 271.7283
MEAN_ANOMALY   = 98.4397

EPHEMERIS_TYPE = 0
CLASSIFICATION_TYPE = U
NORAD_CAT_ID   = 67091
ELEMENT_SET_NO = 999
REV_AT_EPOCH   = 518
BSTAR          = -.43865776E-1
MEAN_MOTION_DOT = -.1922923E-1
MEAN_MOTION_DDOT = 0

CCSDS_OMM_VERS = 2.0
CREATION_DATE  = 
ORIGINATOR     = 

OBJECT_NAME    = STARLINK-35792
OBJECT_ID      = 2025-298T
CENTER_NAME    = EARTH
REF_FRAME      = TEME
TIME_SYSTEM    = UTC
MEAN_ELEMENT_THEORY = SGP/SGP4

EPOCH          = 2026-01-07T22:00:01.999584
MEAN_MOTION    = 15.42617698
ECCENTRICITY   = .0003855
INCLINATION    = 70.0002
RA_OF_ASC_NODE = 176.5340
ARG_OF_PERICENTER = 280.2265
MEAN_ANOMALY   = 72.2266

EPHEMERIS_TYPE = 0
CLASSIFICATION_TYPE = U
NORAD_CAT_ID   = 67092
ELEMENT_SET_NO = 999
REV_AT_EPOCH   = 512
BSTAR          = .20333532E-2
MEAN_MOTION_DOT = .89658E-3
MEAN_MOTION_DDOT = 0

CCSDS_OMM_VERS = 2.0
CREATION_DATE  = 
ORIGINATOR     = 

OBJECT_NAME    = STARLINK-35784
OBJECT_ID      = 2025-298U
CENTER_NAME    = EARTH
REF_FRAME      = TEME
TIME_SYSTEM    = UTC
MEAN_ELEMENT_THEORY = SGP/SGP4

EPOCH          = 2026-01-07T22:00:01.999584
MEAN_MOTION    = 15.42681339
ECCENTRICITY   = .0003382
INCLINATION    = 70.0003
RA_OF_ASC_NODE = 176.6372
ARG_OF_PERICENTER = 282.7205
MEAN_ANOMALY   = 338.6847

EPHEMERIS_TYPE = 0
CLASSIFICATION_TYPE = U
NORAD_CAT_ID   = 67093
ELEMENT_SET_NO = 999
REV_AT_EPOCH   = 518
BSTAR          = .16752053E-2
MEAN_MOTION_DOT = .73842E-3
MEAN_MOTION_DDOT = 0

CCSDS_OMM_VERS = 2.0
CREATION_DATE  = 
ORIGINATOR     = 

OBJECT_NAME    = STARLINK-36202
OBJECT_ID      = 2025-298V
CENTER_NAME    = EARTH
REF_FRAME      = TEME
TIME_SYSTEM    = UTC
MEAN_ELEMENT_THEORY = SGP/SGP4

EPOCH          = 2026-01-07T22:00:01.999584
MEAN_MOTION    = 15.42669357
ECCENTRICITY   = .00034985
INCLINATION    = 70.0004
RA_OF_ASC_NODE = 176.6114
ARG_OF_PERICENTER = 277.1317
MEAN_ANOMALY   = 7.2974

EPHEMERIS_TYPE = 0
CLASSIFICATION_TYPE = U
NORAD_CAT_ID   = 67094
ELEMENT_SET_NO = 999
REV_AT_EPOCH   = 518
BSTAR          = .14889622E-2
MEAN_MOTION_DOT = .6552E-3
MEAN_MOTION_DDOT = 0

CCSDS_OMM_VERS = 2.0
CREATION_DATE  = 
ORIGINATOR     = 

OBJECT_NAME    = STARLINK-36227
OBJECT_ID      = 2025-298W
CENTER_NAME    = EARTH
REF_FRAME      = TEME
TIME_SYSTEM    = UTC
MEAN_ELEMENT_THEORY = SGP/SGP4

EPOCH          = 2026-01-07T20:18:36.140832
MEAN_MOTION    = 15.51444286
ECCENTRICITY   = .00032158
INCLINATION    = 70.0004
RA_OF_ASC_NODE = 176.6792
ARG_OF_PERICENTER = 286.3310
MEAN_ANOMALY   = 73.7523

EPHEMERIS_TYPE = 0
CLASSIFICATION_TYPE = U
NORAD_CAT_ID   = 67095
ELEMENT_SET_NO = 999
REV_AT_EPOCH   = 388
BSTAR          = -.63540084E-2
MEAN_MOTION_DOT = -.359769E-2
MEAN_MOTION_DDOT = 0

CCSDS_OMM_VERS = 2.0
CREATION_DATE  = 
ORIGINATOR     = 

OBJECT_NAME    = STARLINK-36228
OBJECT_ID      = 2025-298X
CENTER_NAME    = EARTH
REF_FRAME      = TEME
TIME_SYSTEM    = UTC
MEAN_ELEMENT_THEORY = SGP/SGP4

EPOCH          = 2026-01-07T22:00:01.999584
MEAN_MOTION    = 15.52535593
ECCENTRICITY   = .00033735
INCLINATION    = 70.0003
RA_OF_ASC_NODE = 176.4832
ARG_OF_PERICENTER = 276.0652
MEAN_ANOMALY   = 120.6138

EPHEMERIS_TYPE = 0
CLASSIFICATION_TYPE = U
NORAD_CAT_ID   = 67096
ELEMENT_SET_NO = 999
REV_AT_EPOCH   = 512
BSTAR          = -.43299864E-3
MEAN_MOTION_DOT = -.26733E-3
MEAN_MOTION_DDOT = 0

CCSDS_OMM_VERS = 2.0
CREATION_DATE  = 
ORIGINATOR     = 

OBJECT_NAME    = STARLINK-36222
OBJECT_ID      = 2025-298Y
CENTER_NAME    = EARTH
REF_FRAME      = TEME
TIME_SYSTEM    = UTC
MEAN_ELEMENT_THEORY = SGP/SGP4

EPOCH          = 2026-01-07T17:11:46.171968
MEAN_MOTION    = 15.52557160
ECCENTRICITY   = .00028756
INCLINATION    = 70.0004
RA_OF_ASC_NODE = 177.0289
ARG_OF_PERICENTER = 280.3230
MEAN_ANOMALY   = 79.7633

EPHEMERIS_TYPE = 0
CLASSIFICATION_TYPE = U
NORAD_CAT_ID   = 67097
ELEMENT_SET_NO = 999
REV_AT_EPOCH   = 386
BSTAR          = .86429905E-3
MEAN_MOTION_DOT = .53434E-3
MEAN_MOTION_DDOT = 0

CCSDS_OMM_VERS = 2.0
CREATION_DATE  = 
ORIGINATOR     = 

OBJECT_NAME    = STARLINK-36205
OBJECT_ID      = 2025-298Z
CENTER_NAME    = EARTH
REF_FRAME      = TEME
TIME_SYSTEM    = UTC
MEAN_ELEMENT_THEORY = SGP/SGP4

EPOCH          = 2026-01-07T22:00:01.999584
MEAN_MOTION    = 15.42681223
ECCENTRICITY   = .00035292
INCLINATION    = 70.0005
RA_OF_ASC_NODE = 176.6625
ARG_OF_PERICENTER = 275.6700
MEAN_ANOMALY   = 323.7452

EPHEMERIS_TYPE = 0
CLASSIFICATION_TYPE = U
NORAD_CAT_ID   = 67098
ELEMENT_SET_NO = 999
REV_AT_EPOCH   = 518
BSTAR          = .1614393E-2
MEAN_MOTION_DOT = .71132E-3
MEAN_MOTION_DDOT = 0

